NORAD_CAT_ID,OBJECT_NAME,OBJECT_TYPE,EPOCH,MEAN_MOTION,ECCENTRICITY,INCLINATION,RA_OF_ASC_NODE,ARG_OF_PERICENTER,MEAN_ANOMALY,BSTAR,MEAN_MOTION_DOT,MEAN_MOTION_DDOT,TLE_LINE0,TLE_LINE1,TLE_LINE2,SEMIMAJOR_AXIS,PERIOD,APOGEE,PERIGEE,DECAYED
53294.0,STARLINK-4146,PAYLOAD,2023-10-27 19:13:32,15.08848009,0.0001422,53.2161,92.1032,89.2033,270.9122,0.00027586,4.106e-05,0.0,0 STARLINK-4146,1 53294U 22086BE  23300.80106543  .00004106  00000-0  27586-3 0  9998,2 53294  53.2161  92.1032 0001422  89.2033 270.9122 15.08848009 70759,6917.856,95.437,540.705,538.737,0.0
53294.0,STARLINK-4146,PAYLOAD,2023-10-28 03:10:27,15.08836647,0.0001407,53.2161,90.6162,91.1154,269.0,1.2525e-05,-8.9e-07,0.0,0 STARLINK-4146,1 53294U 22086BE  23301.13226850 -.00000089  00000-0  12525-4 0  9994,2 53294  53.2161  90.6162 0001407  91.1154 269.0000 15.08836647 70800,6917.891,95.438,540.729,538.782,0.0
53294.0,STARLINK-4146,PAYLOAD,2023-10-28 14:18:10,15.08831046,0.0001435,53.2164,88.5345,90.6937,269.422,-2.4483e-05,-6.77e-06,0.0,0 STARLINK-4146,1 53294U 22086BE  23301.59595377 -.00000677  00000-0 -24483-4 0  9997,2 53294  53.2164  88.5345 0001435  90.6937 269.4220 15.08831046 71072,6917.908,95.438,540.765,538.78,0.0
53294.0,STARLINK-4146,PAYLOAD,2023-10-28 17:28:56,15.08834683,0.0001448,53.2167,87.9396,89.7211,270.3947,5.1458e-05,5.31e-06,0.0,0 STARLINK-4146,1 53294U 22086BE  23301.72843410  .00000531  00000-0  51458-4 0  9995,2 53294  53.2167  87.9396 0001448  89.7211 270.3947 15.08834683 71091,6917.897,95.438,540.763,538.76,0.0
53294.0,STARLINK-4146,PAYLOAD,2023-10-29 14:08:56,15.08850365,0.000163,53.2178,84.0746,86.4931,273.6247,0.00034624,5.228e-05,0.0,0 STARLINK-4146,1 53294U 22086BE  23302.58954736  .00005228  00000-0  34624-3 0  9997,2 53294  53.2178  84.0746 0001630  86.4931 273.6247 15.08850365 71225,6917.849,95.437,540.841,538.586,0.0
53294.0,STARLINK-4146,PAYLOAD,2023-10-29 18:55:06,15.08863181,0.0001559,53.2172,83.1811,87.3623,272.7547,0.00060785,9.405e-05,0.0,0 STARLINK-4146,1 53294U 22086BE  23302.78826406  .00009405  00000-0  60785-3 0  9999,2 53294  53.2172  83.1811 0001559  87.3623 272.7547 15.08863181 71054,6917.81,95.436,540.753,538.596,0.0
53294.0,STARLINK-4146,PAYLOAD,2023-10-30 09:13:34,15.0884287,0.000139,53.2174,80.5055,87.7969,272.3182,0.00014963,2.094e-05,0.0,0 STARLINK-4146,1 53294U 22086BE  23303.38443074  .00002094  00000-0  14963-3 0  9996,2 53294  53.2174  80.5055 0001390  87.7969 272.3182 15.08842870 71140,6917.872,95.437,540.698,538.775,0.0
53294.0,STARLINK-4146,PAYLOAD,2023-10-30 17:10:30,15.08835746,0.0001667,53.2169,79.0189,100.4067,259.7113,3.0513e-05,1.98e-06,0.0,0 STARLINK-4146,1 53294U 22086BE  23303.71563141  .00000198  00000-0  30513-4 0  9994,2 53294  53.2169  79.0189 0001667 100.4067 259.7113 15.08835746 71398,6917.893,95.438,540.912,538.605,0.0
53294.0,STARLINK-4146,PAYLOAD,2023-10-31 02:42:49,15.08831092,0.000161,53.2165,77.2354,96.5366,263.581,3.3659e-06,-2.34e-06,0.0,0 STARLINK-4146,1 53294U 22086BE  23304.11307610 -.00000234  00000-0  33659-5 0  9993,2 53294  53.2165  77.2354 0001610  96.5366 263.5810 15.08831092 71255,6917.908,95.438,540.886,538.659,0.0
53294.0,STARLINK-4146,PAYLOAD,2023-10-31 13:50:31,15.08838265,0.0001499,53.2169,75.1549,88.4357,271.6806,9.6212e-05,1.244e-05,0.0,0 STARLINK-4146,1 53294U 22086BE  23304.57675712  .00001244  00000-0  96212-4 0  9998,2 53294  53.2169  75.1549 0001499  88.4357 271.6806 15.08838265 71521,6917.886,95.438,540.788,538.714,0.0
53294.0,STARLINK-4146,PAYLOAD,2023-10-31 15:25:54,15.08840645,0.0001463,53.2175,74.8577,87.354,272.762,9.3434e-05,1.199e-05,0.0,0 STARLINK-4146,1 53294U 22086BE  23304.64299598  .00001199  00000-0  93434-4 0  9992,2 53294  53.2175  74.8577 0001463  87.3540 272.7620 15.08840645 71530,6917.878,95.438,540.756,538.731,0.0
53294.0,STARLINK-4146,PAYLOAD,2023-11-01 15:16:41,15.08847736,0.0001345,53.2176,70.3951,90.9377,269.1769,0.00038427,5.834e-05,0.0,0 STARLINK-4146,1 53294U 22086BE  23305.63659601  .00005834  00000-0  38427-3 0  9997,2 53294  53.2176  70.3951 0001345  90.9377 269.1769 15.08847736 71683,6917.857,95.437,540.652,538.791,0.0
53294.0,STARLINK-4146,PAYLOAD,2023-11-02 11:56:42,15.08846064,0.0001437,53.219,66.5314,93.2233,266.8924,0.00020596,2.992e-05,0.0,0 STARLINK-4146,1 53294U 22086BE  23306.49771646  .00002992  00000-0  20596-3 0  9996,2 53294  53.2190  66.5314 0001437  93.2233 266.8924 15.08846064 71611,6917.862,95.437,540.721,538.733,0.0
53294.0,STARLINK-4146,PAYLOAD,2023-11-02 15:07:28,15.08850382,0.0001341,53.2181,65.936,89.5709,270.5436,0.00030847,4.626e-05,0.0,0 STARLINK-4146,1 53294U 22086BE  23306.63019398  .00004626  00000-0  30847-3 0  9997,2 53294  53.2181  65.9360 0001341  89.5709 270.5436 15.08850382 71837,6917.849,95.437,540.641,538.786,0.0
53294.0,STARLINK-4146,PAYLOAD,2023-11-03 07:01:20,15.08834284,0.0001672,53.218,62.9616,77.6485,282.4695,-0.0001486,-2.652e-05,0.0,0 STARLINK-4146,1 53294U 22086BE  23307.29259801 -.00002652  00000-0 -14860-3 0  9991,2 53294  53.2180  62.9616 0001672  77.6485 282.4695 15.08834284 71734,6917.898,95.438,540.92,538.606,0.0
53294.0,STARLINK-4146,PAYLOAD,2023-11-03 13:22:53,15.08831969,0.0001665,53.2193,61.7758,94.3943,265.7239,0.00021234,3.092e-05,0.0,0 STARLINK-4146,1 53294U 22086BE  23307.55756155  .00003092  00000-0  21234-3 0  9994,2 53294  53.2193  61.7758 0001665  94.3943 265.7239 15.08831969 71970,6917.905,95.438,540.922,538.618,0.0
53294.0,STARLINK-4146,PAYLOAD,2023-11-04 10:02:54,15.08836101,0.0001379,53.2173,57.9092,87.2044,272.9106,2.265e-05,7.3e-07,0.0,0 STARLINK-4146,1 53294U 22086BE  23308.41868152  .00000073  00000-0  22650-4 0  9991,2 53294  53.2173  57.9092 0001379  87.2044 272.9106 15.08836101 71900,6917.892,95.438,540.711,538.803,0.0
53294.0,STARLINK-4146,PAYLOAD,2023-11-04 13:13:40,15.08838822,0.0001332,53.2174,57.3135,88.7398,271.3747,9.3139e-05,1.195e-05,0.0,0 STARLINK-4146,1 53294U 22086BE  23308.55116080  .00001195  00000-0  93139-4 0  9998,2 53294  53.2174  57.3135 0001332  88.7398 271.3747 15.08838822 72121,6917.884,95.438,540.67,538.828,0.0
53294.0,STARLINK-4146,PAYLOAD,2023-11-04 14:49:03,15.08845533,0.0001357,53.2172,57.0162,85.1592,274.9555,0.00021381,3.117e-05,0.0,0 STARLINK-4146,1 53294U 22086BE  23308.61739822  .00003117  00000-0  21381-3 0  9995,2 53294  53.2172  57.0162 0001357  85.1592 274.9555 15.08845533 71931,6917.863,95.437,540.667,538.79,0.0
53294.0,STARLINK-4146,PAYLOAD,2023-11-05 14:39:49,15.08861941,0.0001466,53.2172,52.5556,79.3598,280.7559,0.00051715,7.957e-05,0.0,0 STARLINK-4146,1 53294U 22086BE  23309.61099177  .00007957  00000-0  51715-3 0  9998,2 53294  53.2172  52.5556 0001466  79.3598 280.7559 15.08861941 72289,6917.813,95.436,540.692,538.664,0.0
53294.0,STARLINK-4146,PAYLOAD,2023-11-06 00:12:07,15.08883203,0.0001545,53.2171,50.7714,75.5084,284.608,0.00096337,0.00015095,0.0,0 STARLINK-4146,1 53294U 22086BE  23310.00842244  .00015095  00000-0  96337-3 0  9995,2 53294  53.2171  50.7714 0001545  75.5084 284.6080 15.08883203 72142,6917.748,95.435,540.682,538.545,0.0
53294.0,STARLINK-4146,PAYLOAD,2023-11-06 11:19:50,15.08809861,0.0001414,53.2169,48.69,69.4727,290.6417,-0.0017469,-0.00027959,0.0,0 STARLINK-4146,1 53294U 22086BE  23310.47211011 -.00027959  00000-0 -17469-2 0  9990,2 53294  53.2169  48.6900 0001414  69.4727 290.6417 15.08809861 72210,6917.973,95.439,540.816,538.859,0.0
53294.0,STARLINK-4146,PAYLOAD,2023-11-06 12:55:13,15.08807174,0.0001325,53.2173,48.3894,109.8765,250.237,-0.0016301,-0.00026114,0.0,0 STARLINK-4146,1 53294U 22086BE  23310.53834923 -.00026114  00000-0 -16301-2 0  9996,2 53294  53.2173  48.3894 0001325 109.8765 250.2370 15.08807174 72424,6917.981,95.44,540.762,538.929,0.0
53294.0,STARLINK-4146,PAYLOAD,2023-11-07 11:10:40,15.08818494,0.0002407,53.2176,44.2283,126.801,233.3204,0.001492,0.00023523,0.0,0 STARLINK-4146,1 53294U 22086BE  23311.46574135  .00023523  00000-0  14920-2 0  9999,2 53294  53.2176  44.2283 0002407 126.8010 233.3204 15.08818494 72366,6917.946,95.439,541.476,538.146,0.0
53294.0,STARLINK-4146,PAYLOAD,2023-11-07 12:46:03,15.08816696,0.0001528,53.2176,43.9313,91.4393,268.6775,0.0017051,0.00026936,0.0,0 STARLINK-4146,1 53294U 22086BE  23311.53198536  .00026936  00000-0  17051-2 0  9993,2 53294  53.2176  43.9313 0001528  91.4393 268.6775 15.08816696 72579,6917.952,95.439,540.874,538.76,0.0
53294.0,STARLINK-4146,PAYLOAD,2023-11-07 23:53:45,15.08834483,0.0001528,53.2178,41.851,90.791,269.3257,0.0013655,0.00021507,0.0,0 STARLINK-4146,1 53294U 22086BE  23311.99566849  .00021507  00000-0  13655-2 0  9994,2 53294  53.2178  41.8510 0001528  90.7910 269.3257 15.08834483 72447,6917.897,95.438,540.819,538.705,0.0
53294.0,STARLINK-4146,PAYLOAD,2023-11-08 12:36:50,15.08851871,0.0001566,53.2186,39.4732,90.3896,269.7275,0.0010282,0.00016119,0.0,0 STARLINK-4146,1 53294U 22086BE  23312.52558379  .00016119  00000-0  10282-2 0  9999,2 53294  53.2186  39.4732 0001566  90.3896 269.7275 15.08851871 72721,6917.844,95.437,540.792,538.626,0.0
53294.0,STARLINK-4146,PAYLOAD,2023-11-09 10:52:13,15.0885262,0.0001421,53.219,35.3111,92.9356,267.1799,0.00042689,6.515e-05,0.0,0 STARLINK-4146,1 53294U 22086BE  23313.45293564  .00006515  00000-0  42689-3 0  9990,2 53294  53.2190  35.3111 0001421  92.9356 267.1799 15.08852620 72660,6917.842,95.437,540.69,538.724,0.0
53294.0,STARLINK-4146,PAYLOAD,2023-11-09 21:59:55,15.08855696,0.0001372,53.2185,33.2305,80.9318,279.1829,0.00012313,1.673e-05,0.0,0 STARLINK-4146,1 53294U 22086BE  23313.91660911  .00001673  00000-0  12313-3 0  9996,2 53294  53.2185  33.2305 0001372  80.9318 279.1829 15.08855696 72939,6917.832,95.437,540.647,538.748,0.0
53294.0,STARLINK-4146,PAYLOAD,2023-11-10 12:18:23,15.08847522,0.0001399,53.2177,30.5528,86.2342,273.881,-6.6965e-06,-3.95e-06,0.0,0 STARLINK-4146,1 53294U 22086BE  23314.51276838 -.00000395  00000-0 -66965-5 0  9990,2 53294  53.2177  30.5528 0001399  86.2342 273.8810 15.08847522 72820,6917.857,95.437,540.69,538.755,0.0
